{"type": "FeatureCollection", "features": [{"type": "Feature", "geometry": {"type": "Point", "coordinates": [-46.6, -23.4]}, "properties": {"name": "serra da cantareira", "rank": 4, "kind": "relevo"}}, {"type": "Feature", "geometry": {"type": "Point", "coordinates": [-46.735, -23.435]}, "properties": {"name": "planalto de taipas", "rank": 4, "kind": "relevo"}}, {"type": "Feature", "geometry": {"type": "Point", "coordinates": [-46.6, -23.76]}, "properties": {"name": "represa billings", "rank": 4, "kind": "relevo"}}, {"type": "Feature", "geometry": {"type": "Point", "coordinates": [-46.745, -23.72]}, "properties": {"name": "represa guarapiranga", "rank": 4, "kind": "relevo"}}, {"type": "Feature", "geometry": {"type": "Point", "coordinates": [-46.48, -23.86]}, "properties": {"name": "serra do mar", "rank": 4, "kind": "relevo"}}]}